[{"OBJECT_NAME":"PAZ","OBJECT_ID":"2018-020A","EPOCH":"2026-03-09T23:24:20.190816","MEAN_MOTION":15.19156042,"ECCENTRICITY":0.00016941,"INCLINATION":97.4464,"RA_OF_ASC_NODE":77.7719,"ARG_OF_PERICENTER":90.6952,"MEAN_ANOMALY":269.4477,"EPHEMERIS_TYPE":0,"CLASSIFICATION_TYPE":"U","NORAD_CAT_ID":43215,"ELEMENT_SET_NO":999,"REV_AT_EPOCH":44594,"BSTAR":0.00012684525,"MEAN_MOTION_DOT":2.598e-5,"MEAN_MOTION_DDOT":0},{"OBJECT_NAME":"OBJECT C","OBJECT_ID":"2026-023C","EPOCH":"2026-03-09T17:14:42.726048","MEAN_MOTION":15.23105823,"ECCENTRICITY":0.00205519,"INCLINATION":96.6388,"RA_OF_ASC_NODE":141.6892,"ARG_OF_PERICENTER":122.5463,"MEAN_ANOMALY":237.7764,"EPHEMERIS_TYPE":0,"CLASSIFICATION_TYPE":"U","NORAD_CAT_ID":67676,"ELEMENT_SET_NO":999,"REV_AT_EPOCH":502,"BSTAR":0.00045389382,"MEAN_MOTION_DOT":0.00010715,"MEAN_MOTION_DDOT":0}]
